GLOBALSTAR M024 [-]     
1 25883U 99043A   23358.78628786 -.00000123  00000+0 -20748-2 0  9994
2 25883  51.9983 159.9376 0000247 327.3538 137.0663 11.10157236 54841
GLOBALSTAR M027 [-]     
1 25884U 99043B   23358.86413875 -.00000031  00000+0  12156-2 0  9996
2 25884  52.0188 222.4426 0020602 196.2213 163.7922 11.04366821 81549
GLOBALSTAR M054 [-]     
1 25885U 99043C   23358.55176493 -.00000084  00000+0 -32201-3 0  9998
2 25885  52.0151  81.1599 0003789 324.7336 137.7833 11.39202775 57766
GLOBALSTAR M053 [-]     
1 25886U 99043D   23358.18244802 -.00000056  00000+0  35951-3 0  9991
2 25886  52.0012 359.1291 0003291 244.6051 194.7903 11.27652562 58416
GLOBALSTAR M058 [-]     
1 25907U 99049A   23358.64823749 -.00000084  00000+0  11491-4 0  9990
2 25907  51.9935 112.5186 0001675 318.0013  42.0693 11.93171803477013
GLOBALSTAR M050 [-]     
1 25908U 99049B   23358.65335855 -.00000163  00000+0 -84596-3 0  9992
2 25908  51.9959 160.5627 0009574  42.2432  38.3767 12.07425191 82896
GLOBALSTAR M033 [-]     
1 25909U 99049C   23358.57849310 -.00000023  00000+0  66165-3 0  9996
2 25909  51.9923  69.9419 0011412 238.0855 121.8882 12.20261902469749
GLOBALSTAR M055 [-]     
1 25910U 99049D   23358.84481564 -.00000095  00000+0 -10558-4 0  9997
2 25910  52.0018 106.2336 0007806  92.8959 267.2786 12.29392466101823
